NUSAT-48 (HENRIETTA LE*)
1 60498U 24149AG  26068.80506098  .00012988  00000+0  45212-3 0  9999
2 60498  97.3923 150.8264 0002754 263.3026  96.7901 15.29812597 86946
STARLINK-35566          
1 66061U 25235D   26068.75022623  .00021336  00000+0  73036-3 0  9991
2 66061  53.1598 244.7815 0000946  58.9602 301.1491 15.30202439 22936
